[{"OBJECT_NAME":"STARLINK-5612","OBJECT_ID":"2023-028P","EPOCH":"2026-03-09T21:34:38.158464","MEAN_MOTION":14.98331533,"ECCENTRICITY":0.00029939,"INCLINATION":69.9996,"RA_OF_ASC_NODE":243.8394,"ARG_OF_PERICENTER":269.4105,"MEAN_ANOMALY":90.6711,"EPHEMERIS_TYPE":0,"CLASSIFICATION_TYPE":"U","NORAD_CAT_ID":55754,"ELEMENT_SET_NO":999,"REV_AT_EPOCH":16607,"BSTAR":-2.0997489e-5,"MEAN_MOTION_DOT":-3.44e-6,"MEAN_MOTION_DDOT":0},{"OBJECT_NAME":"FENGYUN 1C DEB","OBJECT_ID":"1999-025DZR","EPOCH":"2026-03-05T18:23:02.039712","MEAN_MOTION":14.44079976,"ECCENTRICITY":0.0254198,"INCLINATION":98.2326,"RA_OF_ASC_NODE":48.4457,"ARG_OF_PERICENTER":237.9608,"MEAN_ANOMALY":119.6665,"EPHEMERIS_TYPE":0,"CLASSIFICATION_TYPE":"U","NORAD_CAT_ID":36695,"ELEMENT_SET_NO":999,"REV_AT_EPOCH":90766,"BSTAR":0.00026075166,"MEAN_MOTION_DOT":1.268e-5,"MEAN_MOTION_DDOT":0}]
